{
  "type": "FeatureCollection",
  "features": [
    {
      "type": "Feature",
      "properties": {
        "norad_id": 34350,
        "name": "IRIDIUM 33 DEB",
        "group": "iridium-33-debris",
        "lat": 49.22254729627349,
        "lon": 178.23050344679424,
        "alt_km": 720.1275924808051,
        "timestamp": "2025-12-13T10:41:26.150850+00:00",
        "meta_object_name": "IRIDIUM 33 DEB",
        "meta_object_id": "1997-051ES",
        "meta_epoch": "2025-12-12T19:57:01.913760",
        "meta_mean_motion": 14.45387349,
        "meta_eccentricity": 0.00228397,
        "meta_inclination": 86.3275,
        "meta_ra_of_asc_node": 2.7675,
        "meta_arg_of_pericenter": 134.8978,
        "meta_mean_anomaly": 41.952,
        "meta_ephemeris_type": 0,
        "meta_classification_type": "U",
        "meta_norad_cat_id": 34350,
        "meta_element_set_no": 999,
        "meta_rev_at_epoch": 88294,
        "meta_bstar": 0.00048364551,
        "meta_mean_motion_dot": 1.725e-05,
        "meta_mean_motion_ddot": 0,
        "tle_line1": "1 34350U 97051ES  25346.83127215  .00001725  00000+0  48365-3 0  9999",
        "tle_line2": "2 34350  86.3275   2.7675 0022839 134.8978  41.9520 14.45387349882949"
      },
      "geometry": {
        "type": "Point",
        "coordinates": [
          178.23050344679424,
          49.22254729627349
        ]
      }
    },
    {
      "type": "Feature",
      "properties": {
        "norad_id": 34366,
        "name": "IRIDIUM 33 DEB",
        "group": "iridium-33-debris",
        "lat": 59.27969398902723,
        "lon": -137.12686428557984,
        "alt_km": 691.4523632537284,
        "timestamp": "2025-12-13T10:41:26.150860+00:00",
        "meta_object_name": "IRIDIUM 33 DEB",
        "meta_object_id": "1997-051FJ",
        "meta_epoch": "2025-12-12T15:01:14.442240",
        "meta_mean_motion": 14.54058691,
        "meta_eccentricity": 0.00225143,
        "meta_inclination": 86.3697,
        "meta_ra_of_asc_node": 49.3626,
        "meta_arg_of_pericenter": 139.9978,
        "meta_mean_anomaly": 13.1081,
        "meta_ephemeris_type": 0,
        "meta_classification_type": "U",
        "meta_norad_cat_id": 34366,
        "meta_element_set_no": 999,
        "meta_rev_at_epoch": 88180,
        "meta_bstar": 0.0016055272,
        "meta_mean_motion_dot": 6.819e-05,
        "meta_mean_motion_ddot": 0,
        "tle_line1": "1 34366U 97051FJ  25346.62586160  .00006819  00000+0  16055-2 0  9990",
        "tle_line2": "2 34366  86.3697  49.3626 0022514 139.9978  13.1081 14.54058691881805"
      },
      "geometry": {
        "type": "Point",
        "coordinates": [
          -137.12686428557984,
          59.27969398902723
        ]
      }
    },
    {
      "type": "Feature",
      "properties": {
        "norad_id": 34375,
        "name": "IRIDIUM 33 DEB",
        "group": "iridium-33-debris",
        "lat": -55.719500272853935,
        "lon": 177.16366058656806,
        "alt_km": 913.7927640052076,
        "timestamp": "2025-12-13T10:41:26.150871+00:00",
        "meta_object_name": "IRIDIUM 33 DEB",
        "meta_object_id": "1997-051FT",
        "meta_epoch": "2025-12-12T23:49:03.895680",
        "meta_mean_motion": 14.17992706,
        "meta_eccentricity": 0.01033277,
        "meta_inclination": 86.4327,
        "meta_ra_of_asc_node": 182.597,
        "meta_arg_of_pericenter": 125.9322,
        "meta_mean_anomaly": 27.0467,
        "meta_ephemeris_type": 0,
        "meta_classification_type": "U",
        "meta_norad_cat_id": 34375,
        "meta_element_set_no": 999,
        "meta_rev_at_epoch": 86715,
        "meta_bstar": 0.00059451222,
        "meta_mean_motion_dot": 1.302e-05,
        "meta_mean_motion_ddot": 0,
        "tle_line1": "1 34375U 97051FT  25346.99240620  .00001302  00000+0  59451-3 0  9998",
        "tle_line2": "2 34375  86.4327 182.5970 0103327 125.9322  27.0467 14.17992706867155"
      },
      "geometry": {
        "type": "Point",
        "coordinates": [
          177.16366058656806,
          -55.719500272853935
        ]
      }
    },
    {
      "type": "Feature",
      "properties": {
        "norad_id": 34376,
        "name": "IRIDIUM 33 DEB",
        "group": "iridium-33-debris",
        "lat": 68.96986142570647,
        "lon": 15.915501846535335,
        "alt_km": 679.8385163636676,
        "timestamp": "2025-12-13T10:41:26.150882+00:00",
        "meta_object_name": "IRIDIUM 33 DEB",
        "meta_object_id": "1997-051FU",
        "meta_epoch": "2025-12-12T19:35:45.071232",
        "meta_mean_motion": 14.62570481,
        "meta_eccentricity": 0.00271711,
        "meta_inclination": 86.2989,
        "meta_ra_of_asc_node": 6.5056,
        "meta_arg_of_pericenter": 166.3978,
        "meta_mean_anomaly": 193.7972,
        "meta_ephemeris_type": 0,
        "meta_classification_type": "U",
        "meta_norad_cat_id": 34376,
        "meta_element_set_no": 999,
        "meta_rev_at_epoch": 88008,
        "meta_bstar": 0.0020216888,
        "meta_mean_motion_dot": 0.00010344,
        "meta_mean_motion_ddot": 0,
        "tle_line1": "1 34376U 97051FU  25346.81649388  .00010344  00000+0  20217-2 0  9997",
        "tle_line2": "2 34376  86.2989   6.5056 0027171 166.3978 193.7972 14.62570481880087"
      },
      "geometry": {
        "type": "Point",
        "coordinates": [
          15.915501846535335,
          68.96986142570647
        ]
      }
    },
    {
      "type": "Feature",
      "properties": {
        "norad_id": 34486,
        "name": "IRIDIUM 33 DEB",
        "group": "iridium-33-debris",
        "lat": 10.27364897850518,
        "lon": 12.354220114247472,
        "alt_km": 583.1915332924418,
        "timestamp": "2025-12-13T10:41:26.150892+00:00",
        "meta_object_name": "IRIDIUM 33 DEB",
        "meta_object_id": "1997-051GB",
        "meta_epoch": "2025-12-12T20:43:41.056032",
        "meta_mean_motion": 14.95813552,
        "meta_eccentricity": 0.00136453,
        "meta_inclination": 86.394,
        "meta_ra_of_asc_node": 11.9677,
        "meta_arg_of_pericenter": 113.2535,
        "meta_mean_anomaly": 6.5669,
        "meta_ephemeris_type": 0,
        "meta_classification_type": "U",
        "meta_norad_cat_id": 34486,
        "meta_element_set_no": 999,
        "meta_rev_at_epoch": 88988,
        "meta_bstar": 0.0029287104,
        "meta_mean_motion_dot": 0.0003288,
        "meta_mean_motion_ddot": 0,
        "tle_line1": "1 34486U 97051GB  25346.86366963  .00032880  00000+0  29287-2 0  9994",
        "tle_line2": "2 34486  86.3940  11.9677 0013645 113.2535   6.5669 14.95813552889883"
      },
      "geometry": {
        "type": "Point",
        "coordinates": [
          12.354220114247472,
          10.27364897850518
        ]
      }
    },
    {
      "type": "Feature",
      "properties": {
        "norad_id": 34487,
        "name": "IRIDIUM 33 DEB",
        "group": "iridium-33-debris",
        "lat": -72.4347869100495,
        "lon": -156.27161950646098,
        "alt_km": 769.1916737313477,
        "timestamp": "2025-12-13T10:41:26.150902+00:00",
        "meta_object_name": "IRIDIUM 33 DEB",
        "meta_object_id": "1997-051GC",
        "meta_epoch": "2025-12-12T20:46:06.073248",
        "meta_mean_motion": 14.43216615,
        "meta_eccentricity": 0.00327589,
        "meta_inclination": 86.3434,
        "meta_ra_of_asc_node": 12.3232,
        "meta_arg_of_pericenter": 127.97,
        "meta_mean_anomaly": 352.4945,
        "meta_ephemeris_type": 0,
        "meta_classification_type": "U",
        "meta_norad_cat_id": 34487,
        "meta_element_set_no": 999,
        "meta_rev_at_epoch": 88250,
        "meta_bstar": 0.00028346709,
        "meta_mean_motion_dot": 9.79e-06,
        "meta_mean_motion_ddot": 0,
        "tle_line1": "1 34487U 97051GC  25346.86534807  .00000979  00000+0  28347-3 0  9990",
        "tle_line2": "2 34487  86.3434  12.3232 0032758 127.9700 352.4945 14.43216615882508"
      },
      "geometry": {
        "type": "Point",
        "coordinates": [
          -156.27161950646098,
          -72.4347869100495
        ]
      }
    },
    {
      "type": "Feature",
      "properties": {
        "norad_id": 34488,
        "name": "IRIDIUM 33 DEB",
        "group": "iridium-33-debris",
        "lat": 78.79655851301975,
        "lon": -35.59162525534403,
        "alt_km": 461.77184744229453,
        "timestamp": "2025-12-13T10:41:26.150912+00:00",
        "meta_object_name": "IRIDIUM 33 DEB",
        "meta_object_id": "1997-051GD",
        "meta_epoch": "2025-12-12T09:13:17.706144",
        "meta_mean_motion": 15.29287842,
        "meta_eccentricity": 0.0013375,
        "meta_inclination": 86.3234,
        "meta_ra_of_asc_node": 305.9899,
        "meta_arg_of_pericenter": 52.1887,
        "meta_mean_anomaly": 308.0569,
        "meta_ephemeris_type": 0,
        "meta_classification_type": "U",
        "meta_norad_cat_id": 34488,
        "meta_element_set_no": 999,
        "meta_rev_at_epoch": 89234,
        "meta_bstar": 0.0061124826,
        "meta_mean_motion_dot": 0.00177845,
        "meta_mean_motion_ddot": 0,
        "tle_line1": "1 34488U 97051GD  25346.38423271  .00177845  00000+0  61125-2 0  9997",
        "tle_line2": "2 34488  86.3234 305.9899 0013375  52.1887 308.0569 15.29287842892343"
      },
      "geometry": {
        "type": "Point",
        "coordinates": [
          -35.59162525534403,
          78.79655851301975
        ]
      }
    }
  ]
}